STARLINK-5026           
1 57260C 23094AU  26111.54979167  .00055591  00000+0  20648-2 0  1119
2 57260  43.0013 137.5554 0002034 304.3115 215.4046 15.26723655    14
STARLINK-5485           
1 57261C 23094AV  26111.54840278  .00057797  00000+0  21475-2 0  1119
2 57261  43.0035 148.5385 0001872 309.5530 344.2570 15.26711211    18
STARLINK-5504           
1 57262C 23094AW  26111.53034722  .00059228  00000+0  22000-2 0  1114
2 57262  43.0017 137.6315 0001563 290.4185 136.3762 15.26720998    17
STARLINK-5509           
1 57263C 23094AX  26111.48937500 -.00029102  00000+0 -10541-2 0  1112
2 57263  43.0026 148.8743 0001780 273.1342  53.7804 15.27589488    18
STARLINK-5858           
1 57264C 23094AY  26111.55951389  .00053272  00000+0  19785-2 0  1114
2 57264  43.0035 137.6563 0002234 292.7412 216.5602 15.26726563    16
STARLINK-30198          
1 57290C 23096A   26111.55395833  .00062672  00000+0  27301-2 0  1118
2 57290  42.9947 343.3871 0003241 242.5254 200.1561 15.21380342    18
STARLINK-30239          
1 57291C 23096B   26111.50881944  .00012366  00000+0  44817-3 0  1114
2 57291  43.0034 341.2755 0001486 263.9856 217.7589 15.27551628    17
STARLINK-30235          
1 57294C 23096E   26111.52340278  .00039747  00000+0  14392-2 0  1115
2 57294  43.0033 341.2765 0001579 263.2964 263.3418 15.27567860    19
STARLINK-30236          
1 57300C 23096L   26111.48173611  .00033431  00000+0  12102-2 0  1114
2 57300  43.0038 341.5512 0001609 267.1907   8.8146 15.27580689    13
STARLINK-30201          
1 57301C 23096M   26111.50118056  .00042360  00000+0  15337-2 0  1114
2 57301  43.0024 341.5796 0001812 263.4938  62.9666 15.27568393    18
STARLINK-30233          
1 57302C 23096N   26111.51090278  .00009089  00000+0  32942-3 0  1114
2 57302  43.0039 341.4217 0001696 260.7352 154.6888 15.27553248    10
STARLINK-30184          
1 57310C 23096W   26111.47965278  .00046793  00000+0  16938-2 0  1118
2 57310  43.0024 312.8115 0001551 257.9941 148.5881 15.27574000    18
STARLINK-6290           
1 57328C 23099A   26111.48659722 -.00041492  00000+0 -15030-2 0  1110
2 57328  43.0010  10.3920 0001461 256.6336 165.1368 15.27594293    11
STARLINK-6138           
1 57329C 23099B   26111.46437500 -.00028420  00000+0 -10558-2 0  1113
2 57329  43.0014  10.6770 0001083 251.6250 338.0032 15.26760569    11
STARLINK-6212           
1 57330C 23099C   26111.52548611  .00000500  00000+0  18101-4 0  1119
2 57330  43.0010  10.3218 0001258 234.6540 337.4425 15.27586602    14
STARLINK-6234           
1 57331C 23099D   26111.52895833 -.00007490  00000+0 -27155-3 0  1116
2 57331  43.0006  10.3537 0001397 250.8071 319.4339 15.27548354    13
STARLINK-5831           
1 57332C 23099E   26111.50881944 -.00003854  00000+0 -14321-3 0  1114
2 57332  43.0010  10.4913 0001408 237.0326 210.4426 15.26735876    14
STARLINK-5585           
1 57333C 23099F   26111.50534722 -.00006282  00000+0 -23334-3 0  1116
2 57333  43.0010  10.3870 0001085 260.5358 220.2131 15.26751758    12
STARLINK-5589           
1 57334C 23099G   26111.49076389 -.00017246  00000+0 -62468-3 0  1118
2 57334  43.0046  10.7517 0001450 264.7848  17.2156 15.27584492    11
STARLINK-6316           
1 57335C 23099H   26111.56090278 -.00015995  00000+0 -59457-3 0  1113
2 57335  43.0031   7.1311 0001568 262.6698 331.2345 15.26734405    17
STARLINK-6320           
1 57336C 23099J   26111.52826389  .00008520  00000+0  30866-3 0  1117
2 57336  43.0011   7.2755 0001445 256.6455 165.4485 15.27567632    16
STARLINK-6322           
1 57337C 23099K   26111.48729167 -.00042239  00000+0 -15694-2 0  1117
2 57337  43.0048  10.8191 0001976 254.2252 348.4720 15.26760596    17
STARLINK-6374           
1 57338C 23099L   26111.56437500  .00022083  00000+0  82049-3 0  1116
2 57338  43.0029  10.2498 0001192 251.5574 109.1288 15.26730057    18
STARLINK-6332           
1 57339C 23099M   26111.56020833  .00018091  00000+0  65526-3 0  1119
2 57339  43.0046  10.4100 0001674 264.2849  18.8350 15.27568581    19
STARLINK-6321           
1 57340C 23099N   26111.50256944  .00598120  00000+0  22304-1 0  1110
2 57340  43.0021  11.0132 0001873 267.3648 300.5025 15.26323412    19
STARLINK-6377           
1 57341C 23099P   26111.46715278  .00561380  00000+0  27564-1 0  1117
2 57341  43.0009  13.7586 0001391 262.9707 116.3555 15.17018847    14
STARLINK-6375           
1 57342C 23099Q   26111.54493056  .00004304  00000+0  15592-3 0  1112
2 57342  43.0026   7.0625 0001749 259.1719 311.2718 15.27571455    19
STARLINK-6379           
1 57343C 23099R   26111.47618056 -.00041317  00000+0 -15351-2 0  1113
2 57343  43.0052  10.8460 0001581 261.6596 293.5505 15.26761667    14
STARLINK-6380           
1 57344C 23099S   26111.53937500  .00011515  00000+0  43873-3 0  1115
2 57344  43.0013  10.0575 0001395 242.8980 121.4175 15.25904620    11
STARLINK-6373           
1 57345C 23099T   26111.55465278  .00630920  00000+0  30247-1 0  1112
2 57345  43.0007  13.3298 0001644 260.0868 212.4528 15.17814183    15
STARLINK-6359           
1 57346C 23099U   26111.55673611  .00016871  00000+0  62679-3 0  1114
2 57346  43.0042   7.0793 0001673 259.2918 340.5360 15.26735099    18
STARLINK-6378           
1 57347C 23099V   26111.55465278  .00593410  00000+0  30454-1 0  1116
2 57347  43.0006  13.1915 0001464 259.8648 271.3091 15.15456746    16
STARLINK-6372           
1 57348C 23099W   26111.56437500  .00003639  00000+0  13190-3 0  1114
2 57348  43.0030   7.0325 0002232 262.3260  19.8210 15.27553884    16
STARLINK-6376           
1 57349C 23099X   26111.53381944  .00000080  00000+0  28887-5 0  1110
2 57349  43.0041   6.9052 0001414 261.2968 339.9524 15.27571332    10
STARLINK-6362           
1 57350C 23099Y   26111.52548611  .00005324  00000+0  19288-3 0  1116
2 57350  43.0025 359.9384 0001697 260.6768 275.3396 15.27570845    15
STARLINK-6331           
1 57351C 23099Z   26111.47270833 -.00017692  00000+0 -64068-3 0  1118
2 57351  43.0012   7.0418 0000955 228.7964 120.7541 15.27593619    19
STARLINK-6297           
1 57352C 23099AA  26111.55326389  .00025589  00000+0  92693-3 0  1113
2 57352  43.0034 359.6950 0002021 258.1253 106.1904 15.27561877    17
STARLINK-6324           
1 57353C 23099AB  26111.54979167  .00010925  00000+0  39580-3 0  1115
2 57353  43.0012   6.8984 0001898 264.3540  29.4660 15.27565430    16
STARLINK-6293           
1 57354C 23099AC  26111.52756944 -.00001407  00000+0 -51036-4 0  1118
2 57354  43.0037 359.8021 0002188 257.5158 339.6127 15.27519640    15
STARLINK-6276           
1 57355C 23099AD  26111.47687500 -.00030706  00000+0 -11123-2 0  1119
2 57355  43.0004   0.3963 0001646 259.1317 291.4154 15.27588291    19
STARLINK-6355           
1 57356C 23099AE  26111.48520833 -.00005134  00000+0 -18594-3 0  1113
2 57356  43.0013   0.2273 0001627 265.9305  20.0178 15.27579145    14
STARLINK-5600           
1 57357C 23099AF  26111.53729167  .00021246  00000+0  76967-3 0  1119
2 57357  43.0013 359.5458 0001384 244.7736 130.6506 15.27562622    18
STARLINK-6299           
1 57358C 23099AG  26111.46645833 -.00013584  00000+0 -51762-3 0  1113
2 57358  43.0049 359.2512 0001732 263.2655  16.3755 15.25913954    11
STARLINK-6347           
1 57359C 23099AH  26111.55812500  .00029784  00000+0  10788-2 0  1110
2 57359  43.0028 359.7003 0001698 258.5942 118.2976 15.27562043    14
STARLINK-6348           
1 57360C 23099AJ  26111.48659722 -.00020206  00000+0 -75079-3 0  1116
2 57360  43.0006 359.4777 0001325 254.4759 351.7731 15.26749397    16
STARLINK-6340           
1 57361C 23099AK  26111.46784722 -.00012038  00000+0 -43597-3 0  1118
2 57361  43.0007   0.4237 0001120 253.4402 254.4643 15.27587384    17
STARLINK-6343           
1 57362C 23099AL  26111.54631944  .00640700  00000+0  23500-1 0  1116
2 57362  43.0001 359.3712 0001276 250.5799 224.8298 15.26848631    16
STARLINK-6356           
1 57363C 23099AM  26111.51923611  .00015560  00000+0  59286-3 0  1111
2 57363  43.0005 359.3305 0001020 264.8039 145.7601 15.25902789    14
STARLINK-6338           
1 57364C 23099AN  26111.47756944 -.00009133  00000+0 -33932-3 0  1111
2 57364  43.0006 359.5226 0001335 265.1943 292.7439 15.26746311    17
STARLINK-5007           
1 57365C 23099AP  26111.50048611 -.00012904  00000+0 -47949-3 0  1114
2 57365  43.0020 359.8549 0001814 240.0909 245.4616 15.26744258    11
STARLINK-6174           
1 57366C 23099AQ  26111.50812500  .00004987  00000+0  18529-3 0  1113
2 57366  43.0013 359.7617 0001319 258.1511 292.7310 15.26740010    16
STARLINK-6215           
1 57367C 23099AR  26111.48034722  .00005837  00000+0  21145-3 0  1116
2 57367  43.0013 341.4199 0001653 261.5898 289.2594 15.27570964    12
STARLINK-6218           
1 57368C 23099AS  26111.47965278 -.00023377  00000+0 -86865-3 0  1116
2 57368  43.0009 359.8709 0001507 260.3969 154.7783 15.26749424    16
STARLINK-6168           
1 57369C 23099AT  26111.49284722 -.00009978  00000+0 -37079-3 0  1111
2 57369  43.0005 359.7907 0001346 246.2145 245.3382 15.26742412    14
STARLINK-5353           
1 57370C 23099AU  26111.52895833  .00018245  00000+0  67808-3 0  1116
2 57370  43.0014 359.6811 0001591 262.0495  26.7604 15.26723137    16
STARLINK-6032           
1 57371C 23099AV  26111.53451389  .00021497  00000+0  79836-3 0  1119
2 57371  42.9999 359.3627 0001313 259.1384 181.8043 15.26745988    13
STARLINK-5975           
1 57372C 23099AW  26111.48243056 -.00005107  00000+0 -18968-3 0  1115
2 57372  43.0022   0.1094 0001902 271.4584  47.4657 15.26753869    10
STARLINK-6370           
1 57373C 23099AX  26111.49979167 -.00018616  00000+0 -67438-3 0  1111
2 57373  43.0010   0.1152 0002103 260.3480 112.9945 15.27580236    14
STARLINK-6369           
1 57374C 23099AY  26111.56645833  .00037062  00000+0  13424-2 0  1119
2 57374  43.0041 341.6098 0001649 256.3181 132.6097 15.27558856    18
